[{"OBJECT_NAME":"STARLINK-35769","OBJECT_ID":"2025-280X","EPOCH":"2026-03-09T21:57:25.785792","MEAN_MOTION":14.98327792,"ECCENTRICITY":0.00037575,"INCLINATION":70.0017,"RA_OF_ASC_NODE":333.7221,"ARG_OF_PERICENTER":286.9763,"MEAN_ANOMALY":73.0984,"EPHEMERIS_TYPE":0,"CLASSIFICATION_TYPE":"U","NORAD_CAT_ID":66842,"ELEMENT_SET_NO":999,"REV_AT_EPOCH":1611,"BSTAR":0.0013743089,"MEAN_MOTION_DOT":0.00016343,"MEAN_MOTION_DDOT":0},{"OBJECT_NAME":"CZ-6A DEB","OBJECT_ID":"2022-151MF","EPOCH":"2026-03-09T16:42:09.866592","MEAN_MOTION":14.87246776,"ECCENTRICITY":0.0047609,"INCLINATION":98.5571,"RA_OF_ASC_NODE":128.9986,"ARG_OF_PERICENTER":197.25,"MEAN_ANOMALY":162.7098,"EPHEMERIS_TYPE":0,"CLASSIFICATION_TYPE":"U","NORAD_CAT_ID":54579,"ELEMENT_SET_NO":999,"REV_AT_EPOCH":9742,"BSTAR":0.0037329366,"MEAN_MOTION_DOT":0.00034427,"MEAN_MOTION_DDOT":0}]
